ALOS-2                  
1 39766U 14029A   26076.90211565  .00001586  00000+0  21890-3 0  9999
2 39766  97.9193 175.3800 0001455  93.0141 267.1237 14.79536920638087
YAOGAN-29               
1 41038U 15069A   26076.95858074  .00000226  00000+0  34431-4 0  9992
2 41038  98.0134 105.4097 0001334  22.4747 337.6524 14.83003721557103
ASTRO-H (HITOMI)        
1 41337U 16012A   26076.83068632  .00002469  00000+0  14225-3 0  9992
2 41337  30.9997 304.0110 0009639  52.6877 307.4639 15.10059012553467
HXMT (HUIYAN)           
1 42758U 17034A   26077.00513139  .00004197  00000+0  21400-3 0  9995
2 42758  43.0156 330.4404 0033139 286.5275  73.1934 15.17579615483806
SAOCOM 1A               
1 43641U 18076A   26076.92928916  .00000396  00000+0  56288-4 0  9997
2 43641  97.8893 264.9855 0001441  85.2398 274.8980 14.82149265402587
H-2A R/B                
1 43682U 18084L   26076.84669790  .00014309  00000+0  33790-3 0  9995
2 43682  98.8722 295.9805 0024766 357.3531   2.7576 15.41695729407031
SAOCOM 1B               
1 46265U 20059A   26073.04490030  .00000161  00000+0  26755-4 0  9993
2 46265  97.8899 260.2532 0001383  84.3427 275.7944 14.82151938299390
CSS (TIANHE)            
1 48274U 21035A   26076.58544780  .00021250  00000+0  24801-3 0  9995
2 48274  41.4671 160.1044 0006144 321.5629  38.4771 15.61097750278849
COSMOS 2550             
1 48865U 21056A   26076.14655870 -.00000204  00000+0 -37996-6 0  9999
2 48865  67.1448  18.3252 0008297 268.8880  91.1323 15.33878800264600
CZ-2C R/B               
1 52794U 22058K   26076.86863856  .00025864  00000+0  37193-3 0  9995
2 52794  50.1879 276.1979 0041904 235.7057 123.9944 15.54822640211404
CZ-2C R/B               
1 54039U 22132E   26076.95481133  .00034154  00000+0  37912-3 0  9997
2 54039  97.2954  80.5272 0019805  65.2791 295.0526 15.62612937191660
GSLV R/B                
1 54149U 22138AN  26076.20850182  .00001917  00000+0  16397-3 0  9992
2 54149  87.3883 163.8462 0023762 121.7083 238.6470 14.96829228185054
